[{"OBJECT_NAME":"YOTSUBA-KULOVER","OBJECT_ID":"1998-067XN","EPOCH":"2026-03-09T04:47:45.659328","MEAN_MOTION":15.80299933,"ECCENTRICITY":0.00056151,"INCLINATION":51.6212,"RA_OF_ASC_NODE":59.8333,"ARG_OF_PERICENTER":64.0479,"MEAN_ANOMALY":296.11,"EPHEMERIS_TYPE":0,"CLASSIFICATION_TYPE":"U","NORAD_CAT_ID":65941,"ELEMENT_SET_NO":999,"REV_AT_EPOCH":2342,"BSTAR":0.0011586137,"MEAN_MOTION_DOT":0.00228614,"MEAN_MOTION_DDOT":0},{"OBJECT_NAME":"ELECTRON KICK STAGE R\/B","OBJECT_ID":"2025-305E","EPOCH":"2026-03-09T17:28:24.696768","MEAN_MOTION":15.78060503,"ECCENTRICITY":0.01033089,"INCLINATION":44.9756,"RA_OF_ASC_NODE":214.1215,"ARG_OF_PERICENTER":272.8546,"MEAN_ANOMALY":86.0537,"EPHEMERIS_TYPE":0,"CLASSIFICATION_TYPE":"U","NORAD_CAT_ID":67223,"ELEMENT_SET_NO":999,"REV_AT_EPOCH":1273,"BSTAR":0.0014223477,"MEAN_MOTION_DOT":0.00360525,"MEAN_MOTION_DDOT":5.0909257e-5}]
